ONEWEB-0446             
1 51640U 22012U   25139.47143827  .00000308  00000+0  84731-3 0  9995
2 51640  87.8801 114.7896 0002237  90.3044 269.8340 13.10369123157767
ONEWEB-0448             
1 51641U 22012V   25139.47640965  .00000022  00000+0  27949-4 0  9993
2 51641  87.8800 114.7884 0002035  84.0425 276.0935 13.10368625157736
ONEWEB-0449             
1 51642U 22012W   25139.48138588 -.00000208  00000+0 -63146-3 0  9994
2 51642  87.8793 114.7637 0002251  73.5674 286.5700 13.10369169157744
ONEWEB-0451             
1 51643U 22012X   25139.55573929  .00000055  00000+0  10864-3 0  9992
2 51643  87.9051  84.2110 0002162  77.5746 282.5628 13.17648319161828
ONEWEB-0452             
1 51644U 22012Y   25139.55404013 -.00000151  00000+0 -42149-3 0  9990
2 51644  87.9058  84.2718 0002094  72.1630 287.9730 13.17648782161835
ONEWEB-0456             
1 51646U 22012AA  25139.41498681 -.00000574  00000+0 -16805-2 0  9999
2 51646  87.8793 114.7369 0001893  90.0096 270.1249 13.10371805157773
ONEWEB-0457             
1 51647U 22012AB  25139.46812071  .00000439  00000+0  12223-2 0  9996
2 51647  87.8800 114.7787 0002411  81.3477 278.7923 13.10369358157784
ONEWEB-0458             
1 51648U 22012AC  25139.48967489 -.00000555  00000+0 -16256-2 0  9994
2 51648  87.8787 114.7597 0001952  82.1344 278.0005 13.10370290157746
